CCSDS_OMM_VERS = 2.0
CREATION_DATE  = 
ORIGINATOR     = 

OBJECT_NAME    = SOYUZ-MS 28
OBJECT_ID      = 2025-275A
CENTER_NAME    = EARTH
REF_FRAME      = TEME
TIME_SYSTEM    = UTC
MEAN_ELEMENT_THEORY = SGP/SGP4

EPOCH          = 2025-12-17T13:42:43.375968
MEAN_MOTION    = 15.49636687
ECCENTRICITY   = .00031828
INCLINATION    = 51.6310
RA_OF_ASC_NODE = 118.5527
ARG_OF_PERICENTER = 262.6214
MEAN_ANOMALY   = 97.4413

EPHEMERIS_TYPE = 0
CLASSIFICATION_TYPE = U
NORAD_CAT_ID   = 66664
ELEMENT_SET_NO = 999
REV_AT_EPOCH   = 128
BSTAR          = .14273627E-3
MEAN_MOTION_DOT = .7597E-4
MEAN_MOTION_DDOT = 0

CCSDS_OMM_VERS = 2.0
CREATION_DATE  = 
ORIGINATOR     = 

OBJECT_NAME    = 1998-067XS
OBJECT_ID      = 1998-067XS
CENTER_NAME    = EARTH
REF_FRAME      = TEME
TIME_SYSTEM    = UTC
MEAN_ELEMENT_THEORY = SGP/SGP4

EPOCH          = 2025-12-17T13:30:08.269344
MEAN_MOTION    = 15.50826829
ECCENTRICITY   = .00031669
INCLINATION    = 51.6310
RA_OF_ASC_NODE = 118.4957
ARG_OF_PERICENTER = 225.2923
MEAN_ANOMALY   = 134.7808

EPHEMERIS_TYPE = 0
CLASSIFICATION_TYPE = U
NORAD_CAT_ID   = 66906
ELEMENT_SET_NO = 999
REV_AT_EPOCH   = 236
BSTAR          = .42205849E-3
MEAN_MOTION_DOT = .24423E-3
MEAN_MOTION_DDOT = 0

CCSDS_OMM_VERS = 2.0
CREATION_DATE  = 
ORIGINATOR     = 

OBJECT_NAME    = 1998-067XT
OBJECT_ID      = 1998-067XT
CENTER_NAME    = EARTH
REF_FRAME      = TEME
TIME_SYSTEM    = UTC
MEAN_ELEMENT_THEORY = SGP/SGP4

EPOCH          = 2025-12-17T14:54:10.641600
MEAN_MOTION    = 15.52051532
ECCENTRICITY   = .00040131
INCLINATION    = 51.6305
RA_OF_ASC_NODE = 118.1347
ARG_OF_PERICENTER = 256.0378
MEAN_ANOMALY   = 104.0166

EPHEMERIS_TYPE = 0
CLASSIFICATION_TYPE = U
NORAD_CAT_ID   = 66907
ELEMENT_SET_NO = 999
REV_AT_EPOCH   = 237
BSTAR          = .8696116E-3
MEAN_MOTION_DOT = .53299E-3
MEAN_MOTION_DDOT = 0

CCSDS_OMM_VERS = 2.0
CREATION_DATE  = 
ORIGINATOR     = 

OBJECT_NAME    = 1998-067XU
OBJECT_ID      = 1998-067XU
CENTER_NAME    = EARTH
REF_FRAME      = TEME
TIME_SYSTEM    = UTC
MEAN_ELEMENT_THEORY = SGP/SGP4

EPOCH          = 2025-12-17T13:20:34.724544
MEAN_MOTION    = 15.52141962
ECCENTRICITY   = .0004125
INCLINATION    = 51.6303
RA_OF_ASC_NODE = 118.4505
ARG_OF_PERICENTER = 254.9068
MEAN_ANOMALY   = 105.1466

EPHEMERIS_TYPE = 0
CLASSIFICATION_TYPE = U
NORAD_CAT_ID   = 66908
ELEMENT_SET_NO = 999
REV_AT_EPOCH   = 236
BSTAR          = .86664567E-3
MEAN_MOTION_DOT = .5329E-3
MEAN_MOTION_DDOT = 0

CCSDS_OMM_VERS = 2.0
CREATION_DATE  = 
ORIGINATOR     = 

OBJECT_NAME    = SILVERSAT
OBJECT_ID      = 1998-067XV
CENTER_NAME    = EARTH
REF_FRAME      = TEME
TIME_SYSTEM    = UTC
MEAN_ELEMENT_THEORY = SGP/SGP4

EPOCH          = 2025-12-17T14:52:13.127232
MEAN_MOTION    = 15.52286710
ECCENTRICITY   = .00039762
INCLINATION    = 51.6309
RA_OF_ASC_NODE = 118.1253
ARG_OF_PERICENTER = 257.1224
MEAN_ANOMALY   = 102.9322

EPHEMERIS_TYPE = 0
CLASSIFICATION_TYPE = U
NORAD_CAT_ID   = 66909
ELEMENT_SET_NO = 999
REV_AT_EPOCH   = 237
BSTAR          = .9399615E-3
MEAN_MOTION_DOT = .58177E-3
MEAN_MOTION_DDOT = 0

CCSDS_OMM_VERS = 2.0
CREATION_DATE  = 
ORIGINATOR     = 

OBJECT_NAME    = 1998-067XW
OBJECT_ID      = 1998-067XW
CENTER_NAME    = EARTH
REF_FRAME      = TEME
TIME_SYSTEM    = UTC
MEAN_ELEMENT_THEORY = SGP/SGP4

EPOCH          = 2025-12-17T14:49:41.645568
MEAN_MOTION    = 15.52327753
ECCENTRICITY   = .00045296
INCLINATION    = 51.6302
RA_OF_ASC_NODE = 118.1137
ARG_OF_PERICENTER = 233.5237
MEAN_ANOMALY   = 126.5336

EPHEMERIS_TYPE = 0
CLASSIFICATION_TYPE = U
NORAD_CAT_ID   = 66910
ELEMENT_SET_NO = 999
REV_AT_EPOCH   = 237
BSTAR          = .83127757E-3
MEAN_MOTION_DOT = .51432E-3
MEAN_MOTION_DDOT = 0

CCSDS_OMM_VERS = 2.0
CREATION_DATE  = 
ORIGINATOR     = 

OBJECT_NAME    = 1998-067XX
OBJECT_ID      = 1998-067XX
CENTER_NAME    = EARTH
REF_FRAME      = TEME
TIME_SYSTEM    = UTC
MEAN_ELEMENT_THEORY = SGP/SGP4

EPOCH          = 2025-12-17T14:47:13.814304
MEAN_MOTION    = 15.52703134
ECCENTRICITY   = .00042191
INCLINATION    = 51.6305
RA_OF_ASC_NODE = 118.1027
ARG_OF_PERICENTER = 237.6725
MEAN_ANOMALY   = 122.3857

EPHEMERIS_TYPE = 0
CLASSIFICATION_TYPE = U
NORAD_CAT_ID   = 66911
ELEMENT_SET_NO = 999
REV_AT_EPOCH   = 236
BSTAR          = .97424314E-3
MEAN_MOTION_DOT = .61259E-3
MEAN_MOTION_DDOT = 0

CCSDS_OMM_VERS = 2.0
CREATION_DATE  = 
ORIGINATOR     = 

OBJECT_NAME    = 1998-067XY
OBJECT_ID      = 1998-067XY
CENTER_NAME    = EARTH
REF_FRAME      = TEME
TIME_SYSTEM    = UTC
MEAN_ELEMENT_THEORY = SGP/SGP4

EPOCH          = 2025-12-17T14:57:17.441856
MEAN_MOTION    = 15.51610619
ECCENTRICITY   = .00041707
INCLINATION    = 51.6305
RA_OF_ASC_NODE = 118.1486
ARG_OF_PERICENTER = 250.1115
MEAN_ANOMALY   = 109.9425

EPHEMERIS_TYPE = 0
CLASSIFICATION_TYPE = U
NORAD_CAT_ID   = 66912
ELEMENT_SET_NO = 999
REV_AT_EPOCH   = 236
BSTAR          = .73122967E-3
MEAN_MOTION_DOT = .43985E-3
MEAN_MOTION_DDOT = 0

