SOYUZ-MS 28             
1 66664U 25275A   25351.57133537  .00007597  00000+0  14274-3 0  9997
2 66664  51.6310 118.5527 0003182 262.6214  97.4413 15.49636687  1286
1998-067XS              
1 66906U 98067XS  25351.56259571  .00024423  00000+0  42206-3 0  9994
2 66906  51.6310 118.4957 0003166 225.2923 134.7808 15.50826829  2369
1998-067XT              
1 66907U 98067XT  25351.62095650  .00053299  00000+0  86961-3 0  9997
2 66907  51.6305 118.1347 0004013 256.0378 104.0166 15.52051532  2373
1998-067XU              
1 66908U 98067XU  25351.55595746  .00053290  00000+0  86665-3 0  9993
2 66908  51.6303 118.4505 0004125 254.9068 105.1466 15.52141962  2369
SILVERSAT               
1 66909U 98067XV  25351.61959638  .00058177  00000+0  93996-3 0  9999
2 66909  51.6309 118.1253 0003976 257.1224 102.9322 15.52286710  2373
1998-067XW              
1 66910U 98067XW  25351.61784312  .00051432  00000+0  83128-3 0  9999
2 66910  51.6302 118.1137 0004529 233.5237 126.5336 15.52327753  2376
1998-067XX              
1 66911U 98067XX  25351.61613211  .00061259  00000+0  97424-3 0  9991
2 66911  51.6305 118.1027 0004219 237.6725 122.3857 15.52703134  2363
1998-067XY              
1 66912U 98067XY  25351.62311854  .00043985  00000+0  73123-3 0  9997
2 66912  51.6305 118.1486 0004170 250.1115 109.9425 15.51610619  2368
